STARLINK-31208          
1 59037U 24038Q   26067.91396105 -.00000926  00000+0 -24145-4 0  9994
2 59037  43.0025  31.8631 0001169 253.0933 106.9790 15.27576868114692
FLOCK 4G-5              
1 62663U 25009BG  26068.45638436  .00011278  00000+0  40688-3 0  9997
2 62663  97.4058 151.2478 0002094 314.5072  45.5996 15.28679529 63699
